[{"OBJECT_NAME":"ONEWEB-0564","OBJECT_ID":"2023-029F","EPOCH":"2025-11-02T11:17:17.342304","MEAN_MOTION":13.20771642,"ECCENTRICITY":0.0001482,"INCLINATION":87.9185,"RA_OF_ASC_NODE":319.6889,"ARG_OF_PERICENTER":87.9289,"MEAN_ANOMALY":272.2014,"EPHEMERIS_TYPE":0,"CLASSIFICATION_TYPE":"U","NORAD_CAT_ID":55801,"ELEMENT_SET_NO":999,"REV_AT_EPOCH":13122,"BSTAR":0.0001455,"MEAN_MOTION_DOT":7.2e-7,"MEAN_MOTION_DDOT":0},{"OBJECT_NAME":"ONEWEB-0638","OBJECT_ID":"2023-029G","EPOCH":"2025-11-02T11:39:45.482112","MEAN_MOTION":13.1450101,"ECCENTRICITY":0.0001447,"INCLINATION":87.9001,"RA_OF_ASC_NODE":334.9348,"ARG_OF_PERICENTER":103.8427,"MEAN_ANOMALY":256.2864,"EPHEMERIS_TYPE":0,"CLASSIFICATION_TYPE":"U","NORAD_CAT_ID":55802,"ELEMENT_SET_NO":999,"REV_AT_EPOCH":12961,"BSTAR":-0.00037627,"MEAN_MOTION_DOT":-1.27e-6,"MEAN_MOTION_DDOT":0},{"OBJECT_NAME":"ONEWEB-0639","OBJECT_ID":"2023-029H","EPOCH":"2025-11-02T09:58:21.722016","MEAN_MOTION":13.19726189,"ECCENTRICITY":0.0002878,"INCLINATION":87.9229,"RA_OF_ASC_NODE":350.1049,"ARG_OF_PERICENTER":111.6437,"MEAN_ANOMALY":248.5003,"EPHEMERIS_TYPE":0,"CLASSIFICATION_TYPE":"U","NORAD_CAT_ID":55803,"ELEMENT_SET_NO":999,"REV_AT_EPOCH":12899,"BSTAR":-2.8187e-7,"MEAN_MOTION_DOT":1.3e-7,"MEAN_MOTION_DDOT":0},{"OBJECT_NAME":"ONEWEB-0640","OBJECT_ID":"2023-029J","EPOCH":"2025-11-02T11:53:27.496032","MEAN_MOTION":13.14505153,"ECCENTRICITY":0.0001711,"INCLINATION":87.9007,"RA_OF_ASC_NODE":334.9185,"ARG_OF_PERICENTER":120.5825,"MEAN_ANOMALY":239.5474,"EPHEMERIS_TYPE":0,"CLASSIFICATION_TYPE":"U","NORAD_CAT_ID":55804,"ELEMENT_SET_NO":999,"REV_AT_EPOCH":12963,"BSTAR":-0.00058744,"MEAN_MOTION_DOT":-2.05e-6,"MEAN_MOTION_DDOT":0},{"OBJECT_NAME":"ONEWEB-0641","OBJECT_ID":"2023-029K","EPOCH":"2025-11-02T11:40:42.470688","MEAN_MOTION":13.19725957,"ECCENTRICITY":0.0002102,"INCLINATION":87.9239,"RA_OF_ASC_NODE":350.0677,"ARG_OF_PERICENTER":100.5679,"MEAN_ANOMALY":259.5691,"EPHEMERIS_TYPE":0,"CLASSIFICATION_TYPE":"U","NORAD_CAT_ID":55805,"ELEMENT_SET_NO":999,"REV_AT_EPOCH":12901,"BSTAR":-0.00014856,"MEAN_MOTION_DOT":-4.7e-7,"MEAN_MOTION_DDOT":0},{"OBJECT_NAME":"ONEWEB-0642","OBJECT_ID":"2023-029L","EPOCH":"2025-11-02T11:33:53.264736","MEAN_MOTION":13.19725593,"ECCENTRICITY":0.0002777,"INCLINATION":87.9228,"RA_OF_ASC_NODE":350.096,"ARG_OF_PERICENTER":104.5713,"MEAN_ANOMALY":255.5728,"EPHEMERIS_TYPE":0,"CLASSIFICATION_TYPE":"U","NORAD_CAT_ID":55806,"ELEMENT_SET_NO":999,"REV_AT_EPOCH":12900,"BSTAR":-0.00013154,"MEAN_MOTION_DOT":-4.0e-7,"MEAN_MOTION_DDOT":0},{"OBJECT_NAME":"ONEWEB-0643","OBJECT_ID":"2023-029M","EPOCH":"2025-11-02T11:10:04.276128","MEAN_MOTION":13.14504738,"ECCENTRICITY":0.000261,"INCLINATION":87.901,"RA_OF_ASC_NODE":334.9097,"ARG_OF_PERICENTER":95.4282,"MEAN_ANOMALY":264.7146,"EPHEMERIS_TYPE":0,"CLASSIFICATION_TYPE":"U","NORAD_CAT_ID":55807,"ELEMENT_SET_NO":999,"REV_AT_EPOCH":12960,"BSTAR":0.0004653,"MEAN_MOTION_DOT":1.85e-6,"MEAN_MOTION_DDOT":0},{"OBJECT_NAME":"ONEWEB-0644","OBJECT_ID":"2023-029N","EPOCH":"2025-11-02T09:37:52.936032","MEAN_MOTION":13.19725997,"ECCENTRICITY":0.0002405,"INCLINATION":87.923,"RA_OF_ASC_NODE":350.121,"ARG_OF_PERICENTER":101.6483,"MEAN_ANOMALY":258.492,"EPHEMERIS_TYPE":0,"CLASSIFICATION_TYPE":"U","NORAD_CAT_ID":55808,"ELEMENT_SET_NO":999,"REV_AT_EPOCH":12899,"BSTAR":0.00020181,"MEAN_MOTION_DOT":9.4e-7,"MEAN_MOTION_DDOT":0},{"OBJECT_NAME":"ONEWEB-0645","OBJECT_ID":"2023-029P","EPOCH":"2025-11-02T11:34:54.035040","MEAN_MOTION":13.18131003,"ECCENTRICITY":0.0002162,"INCLINATION":87.9225,"RA_OF_ASC_NODE":350.0924,"ARG_OF_PERICENTER":111.3041,"MEAN_ANOMALY":248.8321,"EPHEMERIS_TYPE":0,"CLASSIFICATION_TYPE":"U","NORAD_CAT_ID":55809,"ELEMENT_SET_NO":999,"REV_AT_EPOCH":12900,"BSTAR":5.0882e-5,"MEAN_MOTION_DOT":3.3e-7,"MEAN_MOTION_DDOT":0},{"OBJECT_NAME":"ONEWEB-0646","OBJECT_ID":"2023-029Q","EPOCH":"2025-11-02T08:45:33.127200","MEAN_MOTION":13.19722941,"ECCENTRICITY":0.0002232,"INCLINATION":87.9232,"RA_OF_ASC_NODE":350.1124,"ARG_OF_PERICENTER":99.6293,"MEAN_ANOMALY":260.5092,"EPHEMERIS_TYPE":0,"CLASSIFICATION_TYPE":"U","NORAD_CAT_ID":55810,"ELEMENT_SET_NO":999,"REV_AT_EPOCH":12897,"BSTAR":0.00026274,"MEAN_MOTION_DOT":1.18e-6,"MEAN_MOTION_DDOT":0},{"OBJECT_NAME":"ONEWEB-0648","OBJECT_ID":"2023-029R","EPOCH":"2025-11-02T08:34:48.266112","MEAN_MOTION":13.14502686,"ECCENTRICITY":0.0002578,"INCLINATION":87.8999,"RA_OF_ASC_NODE":334.894,"ARG_OF_PERICENTER":113.6729,"MEAN_ANOMALY":246.4672,"EPHEMERIS_TYPE":0,"CLASSIFICATION_TYPE":"U","NORAD_CAT_ID":55811,"ELEMENT_SET_NO":999,"REV_AT_EPOCH":12959,"BSTAR":4.5887e-5,"MEAN_MOTION_DOT":3.0e-7,"MEAN_MOTION_DDOT":0},{"OBJECT_NAME":"ONEWEB-0649","OBJECT_ID":"2023-029S","EPOCH":"2025-11-02T09:21:58.070016","MEAN_MOTION":13.19726312,"ECCENTRICITY":0.0002227,"INCLINATION":87.9236,"RA_OF_ASC_NODE":350.1018,"ARG_OF_PERICENTER":106.477,"MEAN_ANOMALY":253.6607,"EPHEMERIS_TYPE":0,"CLASSIFICATION_TYPE":"U","NORAD_CAT_ID":55812,"ELEMENT_SET_NO":999,"REV_AT_EPOCH":12901,"BSTAR":0.00019991,"MEAN_MOTION_DOT":9.3e-7,"MEAN_MOTION_DDOT":0},{"OBJECT_NAME":"ONEWEB-0650","OBJECT_ID":"2023-029T","EPOCH":"2025-11-02T09:15:08.208288","MEAN_MOTION":13.1972723,"ECCENTRICITY":0.0002077,"INCLINATION":87.9228,"RA_OF_ASC_NODE":350.1112,"ARG_OF_PERICENTER":99.1932,"MEAN_ANOMALY":260.9435,"EPHEMERIS_TYPE":0,"CLASSIFICATION_TYPE":"U","NORAD_CAT_ID":55813,"ELEMENT_SET_NO":999,"REV_AT_EPOCH":12898,"BSTAR":0.00011631,"MEAN_MOTION_DOT":6.0e-7,"MEAN_MOTION_DDOT":0},{"OBJECT_NAME":"ONEWEB-0652","OBJECT_ID":"2023-029U","EPOCH":"2025-11-02T11:46:37.009632","MEAN_MOTION":13.14504346,"ECCENTRICITY":0.000173,"INCLINATION":87.9006,"RA_OF_ASC_NODE":334.8881,"ARG_OF_PERICENTER":90.3861,"MEAN_ANOMALY":269.7467,"EPHEMERIS_TYPE":0,"CLASSIFICATION_TYPE":"U","NORAD_CAT_ID":55814,"ELEMENT_SET_NO":999,"REV_AT_EPOCH":12958,"BSTAR":-0.00048917,"MEAN_MOTION_DOT":-1.69e-6,"MEAN_MOTION_DDOT":0},{"OBJECT_NAME":"ONEWEB-0653","OBJECT_ID":"2023-029V","EPOCH":"2025-11-02T11:23:48.444000","MEAN_MOTION":13.14501395,"ECCENTRICITY":0.0001682,"INCLINATION":87.9007,"RA_OF_ASC_NODE":334.8808,"ARG_OF_PERICENTER":99.7299,"MEAN_ANOMALY":260.4021,"EPHEMERIS_TYPE":0,"CLASSIFICATION_TYPE":"U","NORAD_CAT_ID":55815,"ELEMENT_SET_NO":999,"REV_AT_EPOCH":12961,"BSTAR":9.8524e-5,"MEAN_MOTION_DOT":4.9e-7,"MEAN_MOTION_DDOT":0},{"OBJECT_NAME":"ONEWEB-0654","OBJECT_ID":"2023-029W","EPOCH":"2025-11-02T11:16:55.598880","MEAN_MOTION":13.14504994,"ECCENTRICITY":0.000153,"INCLINATION":87.9004,"RA_OF_ASC_NODE":334.8812,"ARG_OF_PERICENTER":87.7632,"MEAN_ANOMALY":272.3673,"EPHEMERIS_TYPE":0,"CLASSIFICATION_TYPE":"U","NORAD_CAT_ID":55816,"ELEMENT_SET_NO":999,"REV_AT_EPOCH":12963,"BSTAR":0.0004932,"MEAN_MOTION_DOT":1.96e-6,"MEAN_MOTION_DDOT":0},{"OBJECT_NAME":"ONEWEB-0656","OBJECT_ID":"2023-029X","EPOCH":"2025-11-02T11:08:11.740992","MEAN_MOTION":13.20771884,"ECCENTRICITY":0.0001507,"INCLINATION":87.9195,"RA_OF_ASC_NODE":319.6432,"ARG_OF_PERICENTER":83.0897,"MEAN_ANOMALY":277.0407,"EPHEMERIS_TYPE":0,"CLASSIFICATION_TYPE":"U","NORAD_CAT_ID":55817,"ELEMENT_SET_NO":999,"REV_AT_EPOCH":13122,"BSTAR":8.0878e-5,"MEAN_MOTION_DOT":4.6e-7,"MEAN_MOTION_DDOT":0}]
