ONEWEB-0564             
1 55801U 23029F   25306.47033961  .00000072  00000+0  14550-3 0  9990
2 55801  87.9185 319.6889 0001482  87.9289 272.2014 13.20771642131221
ONEWEB-0638             
1 55802U 23029G   25306.48594308 -.00000127  00000+0 -37627-3 0  9992
2 55802  87.9001 334.9348 0001447 103.8427 256.2864 13.14501010129610
ONEWEB-0639             
1 55803U 23029H   25306.41552919  .00000013  00000+0 -28187-6 0  9995
2 55803  87.9229 350.1049 0002878 111.6437 248.5003 13.19726189128998
ONEWEB-0640             
1 55804U 23029J   25306.49545713 -.00000205  00000+0 -58744-3 0  9991
2 55804  87.9007 334.9185 0001711 120.5825 239.5474 13.14505153129634
ONEWEB-0641             
1 55805U 23029K   25306.48660267 -.00000047  00000+0 -14856-3 0  9993
2 55805  87.9239 350.0677 0002102 100.5679 259.5691 13.19725957129013
ONEWEB-0642             
1 55806U 23029L   25306.48186649 -.00000040  00000+0 -13154-3 0  9994
2 55806  87.9228 350.0960 0002777 104.5713 255.5728 13.19725593129000
ONEWEB-0643             
1 55807U 23029M   25306.46532727  .00000185  00000+0  46530-3 0  9997
2 55807  87.9010 334.9097 0002610  95.4282 264.7146 13.14504738129600
ONEWEB-0644             
1 55808U 23029N   25306.40130713  .00000094  00000+0  20181-3 0  9994
2 55808  87.9230 350.1210 0002405 101.6483 258.4920 13.19725997128995
ONEWEB-0645             
1 55809U 23029P   25306.48256985  .00000033  00000+0  50882-4 0  9998
2 55809  87.9225 350.0924 0002162 111.3041 248.8321 13.18131003129008
ONEWEB-0646             
1 55810U 23029Q   25306.36496675  .00000118  00000+0  26274-3 0  9990
2 55810  87.9232 350.1124 0002232  99.6293 260.5092 13.19722941128975
ONEWEB-0648             
1 55811U 23029R   25306.35750308  .00000030  00000+0  45887-4 0  9991
2 55811  87.8999 334.8940 0002578 113.6729 246.4672 13.14502686129597
ONEWEB-0649             
1 55812U 23029S   25306.39025544  .00000093  00000+0  19991-3 0  9998
2 55812  87.9236 350.1018 0002227 106.4770 253.6607 13.19726312129011
ONEWEB-0650             
1 55813U 23029T   25306.38551167  .00000060  00000+0  11631-3 0  9990
2 55813  87.9228 350.1112 0002077  99.1932 260.9435 13.19727230128984
ONEWEB-0652             
1 55814U 23029U   25306.49070613 -.00000169  00000+0 -48917-3 0  9994
2 55814  87.9006 334.8881 0001730  90.3861 269.7467 13.14504346129585
ONEWEB-0653             
1 55815U 23029V   25306.47486625  .00000049  00000+0  98524-4 0  9992
2 55815  87.9007 334.8808 0001682  99.7299 260.4021 13.14501395129619
ONEWEB-0654             
1 55816U 23029W   25306.47008795  .00000196  00000+0  49320-3 0  9993
2 55816  87.9004 334.8812 0001530  87.7632 272.3673 13.14504994129637
ONEWEB-0656             
1 55817U 23029X   25306.46402478  .00000046  00000+0  80878-4 0  9997
2 55817  87.9195 319.6432 0001507  83.0897 277.0407 13.20771884131220
